STARLINK-4453           
1 53497U 22099AJ  22241.66667824 -.01233015  00000+0 -13595-1 0  9996
2 53497  97.6557   0.4694 0001881  54.5131  30.6831 15.65771845  2898
STARLINK-4439           
1 53498U 22099AK  22241.66667824 -.01227513  00000+0 -13542-1 0  9995
2 53498  97.6558   0.4692 0001795  56.2579  27.0181 15.65746288  2887
STARLINK-4454           
1 53499U 22099AL  22241.66667824 -.01229601  00000+0 -13551-1 0  9996
2 53499  97.6558   0.4697 0001818  55.9435  29.8945 15.65776505  2889
STARLINK-4455           
1 53500U 22099AM  22241.66667824 -.01224617  00000+0 -13500-1 0  9995
2 53500  97.6559   0.4692 0001785  58.6420  25.9166 15.65758429  2893
STARLINK-4434           
1 53501U 22099AN  22241.66667824 -.01238139  00000+0 -13640-1 0  9995
2 53501  97.6558   0.4700 0001868  54.4262  33.3300 15.65804423  2881
STARLINK-4435           
1 53502U 22099AP  22241.66667824 -.01231526  00000+0 -13570-1 0  9991
2 53502  97.6557   0.4695 0001783  62.8149  23.6627 15.65785227  2881
STARLINK-4461           
1 53503U 22099AQ  22241.66667824 -.01236877  00000+0 -13622-1 0  9994
2 53503  97.6557   0.4698 0001701  68.6265  19.7703 15.65810740  2888
STARLINK-4448           
1 53504U 22099AR  22241.66667824 -.01226594  00000+0 -13508-1 0  9993
2 53504  97.6558   0.4694 0001748  61.4727  25.6473 15.65788636  2889
STARLINK-4446           
1 53505U 22099AS  22241.66667824 -.01067476  00000+0 -11822-1 0  9993
2 53505  97.6558   0.4701 0001690  65.8567  24.5213 15.65714866  2889
STARLINK-4437           
1 53506U 22099AT  22241.66667824 -.01291900  00000+0 -14269-1 0  9993
2 53506  97.6558   0.4697 0001916  62.5901  26.4249 15.65860772  2889
STARLINK-4444           
1 53507U 22099AU  22241.66667824 -.01232325  00000+0 -13552-1 0  9994
2 53507  97.6557   0.4700 0001797  60.3144  30.6445 15.65836052  2885
STARLINK-4443           
1 53508U 22099AV  22241.66667824 -.01229055  00000+0 -13521-1 0  9997
2 53508  97.6559   0.4698 0001844  55.4971  34.1831 15.65819136  2882
STARLINK-4402           
1 53509U 22099AW  22241.66667824 -.01226562  00000+0 -13476-1 0  9997
2 53509  97.6558   0.4701 0001847  55.6202  36.6208 15.65845952  2889
STARLINK-4441           
1 53510U 22099AX  22241.66667824 -.01228715  00000+0 -13505-1 0  9994
2 53510  97.6558   0.4697 0001910  58.5712  33.0292 15.65840284  2881
FALCON 9 DEB            
1 53511U 22099AY  22241.39618611  .00128949  83004-5  44371-3 0  9998
2 53511  97.6792   0.5575 0009816 220.9676 139.0859 15.89569153  2622
FALCON 9 DEB            
1 53512U 22099AZ  22241.39154573  .00140876  94968-5  47096-3 0  9992
2 53512  97.6770   0.5586 0007383 217.5752 142.5005 15.90170422  2626
FALCON 9 DEB            
1 53513U 22099BA  22241.56805260  .00187433  15246-4  57993-3 0  9996
2 53513  97.6733   0.7811 0010481 200.9773 159.1071 15.91616686  2659
FALCON 9 DEB            
1 53514U 22099BB  22241.56510430  .00181370  14452-4  55490-3 0  9991
2 53514  97.6717   0.7820 0009768 185.2922 174.8249 15.91850773  2657
2022-100A               
1 53522U 22100A   22241.87594686  .00006088  00000+0  25529-3 0  9993
2 53522  35.0008 143.9631 0007790 348.1124  11.9392 15.22808868  1552
2022-100B               
1 53523U 22100B   22241.34862676  .00009645  00000+0  39544-3 0  9997
2 53523  35.0016 147.2367 0008381 347.4307  12.6199 15.23473865  1477
2022-100C               
1 53524U 22100C   22241.24253146  .00006942  00000+0  29070-3 0  9993
2 53524  35.0013 147.9019 0005955 342.1977 156.9686 15.22840110  1401
2022-100D               
1 53525U 22100D   22241.41209924  .00008205  00000+0  33343-3 0  9990
2 53525  35.0029 146.8111 0008551 356.2917   3.7748 15.23799574  1434
2022-100E               
1 53526U 22100E   22241.41559627  .00003778  00000+0  15953-3 0  9996
2 53526  35.0029 146.8399 0005799 351.9933   8.0683 15.22727669  1435
STARLINK-4511           
1 53527U 22101A   22241.91667824 -.01181367  00000+0 -84966-2 0  9995
2 53527  53.2175 104.6444 0003274 340.8521 277.0157 15.75678673  1611
STARLINK-4503           
1 53528U 22101B   22241.58334491 -.01198762  00000+0 -83115-2 0  9992
2 53528  53.2176 106.3010 0003285 353.4003 171.5076 15.76543204  1304
STARLINK-4478           
1 53529U 22101C   22241.58334491 -.01197644  00000+0 -82923-2 0  9997
2 53529  53.2176 106.2981 0003187 359.8646 166.0963 15.76572754  1301
STARLINK-4482           
1 53530U 22101D   22241.58334491 -.01198878  00000+0 -82884-2 0  9995
2 53530  53.2176 106.2967 0003232 356.4278 170.5609 15.76608605  1304
STARLINK-4487           
1 53531U 22101E   22241.58334491 -.01198725  00000+0 -82936-2 0  9995
2 53531  53.2176 106.2971 0003238 355.9049 170.5682 15.76591290  1308
STARLINK-4483           
1 53532U 22101F   22241.58334491 -.01198621  00000+0 -82804-2 0  9995
2 53532  53.2176 106.2956 0003229 357.3774 170.1304 15.76624844  1302
STARLINK-4493           
1 53533U 22101G   22241.58334491 -.01198678  00000+0 -82737-2 0  9993
2 53533  53.2176 106.2940 0003429 354.6146 173.4107 15.76641401  1306
STARLINK-4488           
1 53534U 22101H   22241.58334491 -.01196515  00000+0 -82326-2 0  9996
2 53534  53.2176 106.2901 0003307   3.5322 166.5487 15.76708907  1304
STARLINK-4138           
1 53535U 22101J   22241.58334491 -.01197637  00000+0 -82542-2 0  9993
2 53535  53.2176 106.2920 0003158   1.2547 167.7957 15.76675966  1307
STARLINK-4053           
1 53536U 22101K   22241.58334491 -.01197545  00000+0 -82292-2 0  9994
2 53536  53.2176 106.2885 0003067   1.5407 169.5698 15.76743022  1306
STARLINK-4120           
1 53537U 22101L   22241.58334491 -.01198631  00000+0 -82684-2 0  9997
2 53537  53.2176 106.2933 0003053 358.3390 170.1952 15.76659833  1307
STARLINK-4118           
1 53538U 22101M   22241.58334491 -.01197496  00000+0 -82221-2 0  9993
2 53538  53.2176 106.2875 0003036   2.6721 168.9429 15.76761668  1305
STARLINK-4123           
1 53539U 22101N   22241.58334491 -.01196452  00000+0 -82399-2 0  9991
2 53539  53.2176 106.2911 0003008   6.3718 163.1958 15.76691792  1307
STARLINK-4486           
1 53540U 22101P   22241.58334491 -.01198261  00000+0 -82128-2 0  9993
2 53540  53.2175 106.2854 0003423 355.8292 176.8014 15.76797769  1309
STARLINK-4485           
1 53541U 22101Q   22241.58334491 -.01197395  00000+0 -82332-2 0  9998
2 53541  53.2176 106.2891 0003255   1.1684 169.4257 15.76726490  1301
STARLINK-4489           
1 53542U 22101R   22241.58334491 -.01197321  00000+0 -81946-2 0  9998
2 53542  53.2175 106.2834 0003238   1.8367 171.8231 15.76830082  1306
STARLINK-4297           
1 53543U 22101S   22241.58334491 -.01197465  00000+0 -82145-2 0  9990
2 53543  53.2175 106.2861 0003242   0.9799 171.1461 15.76778904  1303
STARLINK-4303           
1 53544U 22101T   22241.58334491 -.01197488  00000+0 -81838-2 0  9994
2 53544  53.2175 106.2814 0003167 359.4405 175.2417 15.76863961  1308
STARLINK-4475           
1 53545U 22101U   22241.58334491 -.01197891  00000+0 -82054-2 0  9994
2 53545  53.2175 106.2841 0003230 357.7143 175.4372 15.76812756  1308
STARLINK-4477           
1 53546U 22101V   22241.91667824 -.01363383  53191-3 -41142-2 0  9998
2 53546  53.2176 103.9944 0026839  73.7820 148.3641 15.90913015  1624
STARLINK-4474           
1 53547U 22101W   22241.58334491 -.01197882  00000+0 -81926-2 0  9993
2 53547  53.2175 106.2821 0003286 357.6917 176.4825 15.76846647  1307
STARLINK-4513           
1 53548U 22101X   22241.58334491 -.01198039  00000+0 -81620-2 0  9990
2 53548  53.2175 106.2775 0003364 351.6702 185.0485 15.76932333  1305
STARLINK-4516           
1 53549U 22101Y   22241.58334491 -.01196581  00000+0 -81705-2 0  9995
2 53549  53.2175 106.2801 0003253   4.3097 170.8844 15.76880049  1309
STARLINK-4518           
1 53550U 22101Z   22241.58334491 -.01197591  00000+0 -81520-2 0  9994
2 53550  53.2175 106.2765 0003444 347.4210 189.8052 15.76949165  1306
STARLINK-4514           
1 53551U 22101AA  22241.58334491 -.01197780  00000+0 -81733-2 0  9991
2 53551  53.2175 106.2791 0003219 353.9533 181.7485 15.76898034  1305
STARLINK-4495           
1 53552U 22101AB  22241.58334491 -.01197534  00000+0 -81330-2 0  9992
2 53552  53.2175 106.2735 0003423 348.4441 190.3044 15.77000250  1301
STARLINK-4501           
1 53553U 22101AC  22241.58334491 -.01197517  00000+0 -81461-2 0  9999
2 53553  53.2175 106.2751 0003269 355.1032 182.6316 15.76966144  1307
STARLINK-4506           
1 53554U 22101AD  22241.58334491 -.01197304  00000+0 -81188-2 0  9990
2 53554  53.2175 106.2714 0003463 354.1359 185.6278 15.77033818  1308
STARLINK-4504           
1 53555U 22101AE  22241.58334491 -.01197082  00000+0 -81365-2 0  9991
2 53555  53.2175 106.2741 0003282 359.1496 179.0920 15.76983136  1302
STARLINK-4505           
1 53556U 22101AF  22241.58334491 -.01197139  00000+0 -81058-2 0  9994
2 53556  53.2175 106.2694 0003320 357.8989 182.8755 15.77068008  1306
STARLINK-4502           
1 53557U 22101AG  22241.58334491 -.01197142  00000+0 -81231-2 0  9992
2 53557  53.2175 106.2721 0003617 346.7377 192.5202 15.77016469  1304
STARLINK-4494           
1 53558U 22101AH  22241.58334491 -.01197158  00000+0 -80939-2 0  9994
2 53558  53.2175 106.2674 0003347 357.4183 184.3729 15.77100742  1307
STARLINK-4508           
1 53559U 22101AJ  22241.58334491 -.01197047  00000+0 -81111-2 0  9995
2 53559  53.2175 106.2701 0003410 353.1739 187.0979 15.77050284  1302
STARLINK-4564           
1 53560U 22101AK  22241.58334491 -.01196835  00000+0 -80776-2 0  9997
2 53560  53.2175 106.2654 0003629 347.9723 194.8243 15.77134910  1306
STARLINK-4563           
1 53561U 22101AL  22241.58334491 -.01197180  00000+0 -80997-2 0  9997
2 53561  53.2175 106.2680 0003320   1.5167 179.7601 15.77085624  1306
STARLINK-4565           
1 53562U 22101AM  22241.58334491 -.01197096  00000+0 -80687-2 0  9990
2 53562  53.2175 106.2634 0003336   1.5848 182.2209 15.77168967  1304
